#aV2019  4 18  0  0  0.00000000     288 DD+AD WGS84 FIT  NGA
## 2049 345600.00000000   300.00000000 58591 0.0000000000000
+   31     1  2  3  5  6  7  8  9 10 11 12 13 14 15 16 17 18
+         19 20 21 22 23 24 25 26 27 28 29 30 31 32  0  0  0
+          0  0  0  0  0  0  0  0  0  0  0  0  0  0  0  0  0
+          0  0  0  0  0  0  0  0  0  0  0  0  0  0  0  0  0
+          0  0  0  0  0  0  0  0  0  0  0  0  0  0  0  0  0
++         2  2  2  2  2  2  2  2  2  2  2  2  2  2  2  2  2
++         2  2  2  2  2  2  2  2  2  2  2  2  2  2  0  0  0
++         0  0  0  0  0  0  0  0  0  0  0  0  0  0  0  0  0
++         0  0  0  0  0  0  0  0  0  0  0  0  0  0  0  0  0
++         0  0  0  0  0  0  0  0  0  0  0  0  0  0  0  0  0
%c cc cc ccc ccc cccc cccc cccc cccc ccccc ccccc ccccc ccccc
%c cc cc ccc ccc cccc cccc cccc cccc ccccc ccccc ccccc ccccc
%f  0.0000000  0.000000000  0.00000000000  0.000000000000000
%f  0.0000000  0.000000000  0.00000000000  0.000000000000000
%i    0    0    0    0      0      0      0      0         0
%i    0    0    0    0      0      0      0      0         0
/*      NGA, ST. LOUIS,MO.                                  
/*   EPHEMERIS COMPUTED FROM 2 DAYS OF DATA                 
/*   EPOCHA v3 SMOOTHER                                     
/*   G1762 IERS2010 SATAF SATAPC                            
*  2019  4 18 19 15  0.00000000
P  1  13916.062430 -22292.937644   2161.704620   -204.666992                    
V  1    880.778396   3885.523060  32125.214317     -0.082729                    
P  2 -17217.789614   5399.621909 -18830.937376   -192.262395                    
V  2   9139.617611 -23625.500100 -14823.610933     -0.093897                    
P  3  15860.321602 -12449.327940 -17279.485045    188.277628                    
V  3  21941.843841   1165.539602  19416.935399      0.001522                    
P  5 -26554.971901   2185.724094   1118.885369      1.107977                    
V  5  -1709.541640  -2926.284259 -31319.327799     -0.000487                    
P  6 -12315.209589  -8473.343573 -21904.659888    227.499123                    
V  6  13365.204335 -24475.634155   1982.923782     -0.095029                    
P  7   4486.930502 -23675.561390  10871.964315     -7.396912                    
V  7   9166.335752 -10458.460247 -27651.820207     -0.074647                    
P  8  12481.497060  -8358.476706  21939.094203   -140.394457                    
V  8  14933.097672  23376.955051    611.419594     -0.013647                    
P  9  -6019.861547 -23607.849403 -10606.533384    426.571064                    
V  9   9438.757482   9913.980907 -27541.742480     -0.065041                    
P 10  16651.293755  11581.264019  17311.426493     69.478488                    
V 10 -21728.269744   2189.396476  19312.606714     -0.098022                    
P 11   9721.781577 -22028.908821  10940.619178   -623.959726                    
V 11   2923.853851  14891.518041  25882.329081      0.073724                    
P 12 -17011.435212  10890.226138 -17365.352229    250.110552                    
V 12 -21578.838501  -2238.716996  20153.446018     -0.033833                    
P 13 -16248.664560  -1037.677403  20880.832476    -67.268228                    
V 13 -10410.745833 -24640.279973  -9234.702409      0.015460                    
P 14  17479.146965  15976.970189 -11896.124426    -83.977579                    
V 14   5002.958729  14883.767715  26455.970297      0.015099                    
P 15 -11397.023799  11024.066443  21026.081993   -317.691010                    
V 15 -16862.510090 -21681.785478   2590.679417      0.020175                    
P 16  26657.700969   -120.736894   2566.339565    -33.632073                    
V 16   3330.604585   1936.895834 -31739.250760     -0.028176                    
P 17 -14658.453774 -21814.145168  -3746.321618     41.089894                    
V 17   -731.318018  -5566.041414  31745.831640      0.059520                    
P 18  16732.659386 -17195.612033  10755.999074     45.409203                    
V 18  -3668.011307  14265.403403  27423.130641      0.035871                    
P 19 -17059.286807 -16343.604050 -12345.000520   -329.146691                    
V 19  -5036.037053 -14450.530046  26824.335240      0.044527                    
P 20   7028.204367  14707.381168  20883.998608    524.068512                    
V 20 -26481.753715   4533.647580   5545.157504      0.002985                    
P 21   1220.454409  22555.923981  14886.927624   -209.783340                    
V 21  -9296.584888  14975.482510 -23056.678785      0.076186                    
P 22  21794.402180 -10304.218145 -10836.364256   -686.022491                    
V 22  14472.589988   2058.005456  26644.228722     -0.068494                    
P 23   4284.650410 -18120.821129 -18456.305815   -189.691788                    
V 23  14765.285044  19420.919435 -15772.195838      0.014925                    
P 24 -14885.250320  20894.336309   6024.697820    -64.962976                    
V 24    121.818592  -8747.013077  30197.278604     -0.004464                    
P 25  -3871.981822  14994.852960 -21760.294684   -747.073979                    
V 25 -27138.355043    131.500305   5218.635671     -0.043187                    
P 26  25004.559921   4484.942467  -8076.000024    179.379472                    
V 26 -10039.700765   3257.893283 -29170.098089      0.098629                    
P 27  17670.135277   3689.817337  19486.355731   -111.470079                    
V 27  12250.309106  21599.147971 -14827.042458     -0.087665                    
P 28 -14505.304350 -13253.073457  18434.165938    767.528294                    
V 28  22191.385533    310.931237  18385.571867      0.003358                    
P 29    729.774758  22163.394534 -14649.429995    222.330646                    
V 29  -9969.974838 -15656.119391 -24233.875747     -0.091494                    
P 30  -4773.532464 -18327.170846  18565.423218    -88.898887                    
V 30  13737.498978 -19359.847250 -15777.646281     -0.068844                    
P 31  13491.702890   7076.191896 -21759.985388     44.147312                    
V 31 -13978.276059  23833.414512   -480.129132     -0.026681                    
P 32  17297.168806  19164.328959  -6439.389122   -126.563549                    
V 32   2046.750512   8418.246479  30181.249606      0.175936                    
EOF
